{
  "type": "FeatureCollection",
  "features": [
    {
      "type": "Feature",
      "properties": {
        "norad_id": 55973,
        "name": "TIANMU-1 03",
        "group": "weather",
        "lat": 32.754337744850865,
        "lon": -25.09455296127086,
        "alt_km": 441.3045227206385,
        "timestamp": "2025-12-13T08:49:15.336898+00:00",
        "meta_object_name": "TIANMU-1 03",
        "meta_object_id": "2023-039A",
        "meta_epoch": "2025-12-13T00:23:37.416192",
        "meta_mean_motion": 15.40933771,
        "meta_eccentricity": 0.00043949,
        "meta_inclination": 97.5108,
        "meta_ra_of_asc_node": 149.6755,
        "meta_arg_of_pericenter": 60.5641,
        "meta_mean_anomaly": 299.6043,
        "meta_ephemeris_type": 0,
        "meta_classification_type": "U",
        "meta_norad_cat_id": 55973,
        "meta_element_set_no": 999,
        "meta_rev_at_epoch": 15210,
        "meta_bstar": 0.0005059729,
        "meta_mean_motion_dot": 0.00020767,
        "meta_mean_motion_ddot": 0,
        "tle_line1": "1 55973U 23039A   25347.01640528  .00020767  00000+0  50597-3 0  9993",
        "tle_line2": "2 55973  97.5108 149.6755 0004394  60.5641 299.6043 15.40933771152102"
      },
      "geometry": {
        "type": "Point",
        "coordinates": [
          -25.09455296127086,
          32.754337744850865
        ]
      }
    },
    {
      "type": "Feature",
      "properties": {
        "norad_id": 55974,
        "name": "TIANMU-1 04",
        "group": "weather",
        "lat": -78.67314366445834,
        "lon": -71.9254561232888,
        "alt_km": 452.71445205753116,
        "timestamp": "2025-12-13T08:49:15.336909+00:00",
        "meta_object_name": "TIANMU-1 04",
        "meta_object_id": "2023-039B",
        "meta_epoch": "2025-12-12T23:53:56.509152",
        "meta_mean_motion": 15.41270446,
        "meta_eccentricity": 0.00050344,
        "meta_inclination": 97.5039,
        "meta_ra_of_asc_node": 148.8452,
        "meta_arg_of_pericenter": 55.3583,
        "meta_mean_anomaly": 304.8137,
        "meta_ephemeris_type": 0,
        "meta_classification_type": "U",
        "meta_norad_cat_id": 55974,
        "meta_element_set_no": 999,
        "meta_rev_at_epoch": 15210,
        "meta_bstar": 0.00052153304,
        "meta_mean_motion_dot": 0.00021653,
        "meta_mean_motion_ddot": 0,
        "tle_line1": "1 55974U 23039B   25346.99579293  .00021653  00000+0  52153-3 0  9995",
        "tle_line2": "2 55974  97.5039 148.8452 0005034  55.3583 304.8137 15.41270446152107"
      },
      "geometry": {
        "type": "Point",
        "coordinates": [
          -71.9254561232888,
          -78.67314366445834
        ]
      }
    },
    {
      "type": "Feature",
      "properties": {
        "norad_id": 55975,
        "name": "TIANMU-1 05",
        "group": "weather",
        "lat": -66.37585542780658,
        "lon": 167.27065655167664,
        "alt_km": 453.09879578867367,
        "timestamp": "2025-12-13T08:49:15.336919+00:00",
        "meta_object_name": "TIANMU-1 05",
        "meta_object_id": "2023-039C",
        "meta_epoch": "2025-12-12T23:45:44.803296",
        "meta_mean_motion": 15.40890426,
        "meta_eccentricity": 0.0004351,
        "meta_inclination": 97.5086,
        "meta_ra_of_asc_node": 149.3317,
        "meta_arg_of_pericenter": 77.7496,
        "meta_mean_anomaly": 282.4237,
        "meta_ephemeris_type": 0,
        "meta_classification_type": "U",
        "meta_norad_cat_id": 55975,
        "meta_element_set_no": 999,
        "meta_rev_at_epoch": 15208,
        "meta_bstar": 0.00051271301,
        "meta_mean_motion_dot": 0.00021015,
        "meta_mean_motion_ddot": 0,
        "tle_line1": "1 55975U 23039C   25346.99010189  .00021015  00000+0  51271-3 0  9992",
        "tle_line2": "2 55975  97.5086 149.3317 0004351  77.7496 282.4237 15.40890426152082"
      },
      "geometry": {
        "type": "Point",
        "coordinates": [
          167.27065655167664,
          -66.37585542780658
        ]
      }
    },
    {
      "type": "Feature",
      "properties": {
        "norad_id": 55976,
        "name": "TIANMU-1 06",
        "group": "weather",
        "lat": -68.32633557171212,
        "lon": -49.201511673314435,
        "alt_km": 452.60313853119715,
        "timestamp": "2025-12-13T08:49:15.336932+00:00",
        "meta_object_name": "TIANMU-1 06",
        "meta_object_id": "2023-039D",
        "meta_epoch": "2025-12-12T23:57:03.671424",
        "meta_mean_motion": 15.41322297,
        "meta_eccentricity": 0.00046287,
        "meta_inclination": 97.5097,
        "meta_ra_of_asc_node": 149.8051,
        "meta_arg_of_pericenter": 72.7357,
        "meta_mean_anomaly": 287.4396,
        "meta_ephemeris_type": 0,
        "meta_classification_type": "U",
        "meta_norad_cat_id": 55976,
        "meta_element_set_no": 999,
        "meta_rev_at_epoch": 15210,
        "meta_bstar": 0.00051560052,
        "meta_mean_motion_dot": 0.0002144,
        "meta_mean_motion_ddot": 0,
        "tle_line1": "1 55976U 23039D   25346.99795916  .00021440  00000+0  51560-3 0  9994",
        "tle_line2": "2 55976  97.5097 149.8051 0004628  72.7357 287.4396 15.41322297152104"
      },
      "geometry": {
        "type": "Point",
        "coordinates": [
          -49.201511673314435,
          -68.32633557171212
        ]
      }
    },
    {
      "type": "Feature",
      "properties": {
        "norad_id": 56232,
        "name": "FENGYUN 3G",
        "group": "weather",
        "lat": 1.0056688879696685,
        "lon": -134.9410659355159,
        "alt_km": 411.8197188885615,
        "timestamp": "2025-12-13T08:49:15.336943+00:00",
        "meta_object_name": "FENGYUN 3G",
        "meta_object_id": "2023-055A",
        "meta_epoch": "2025-12-13T01:05:51.421056",
        "meta_mean_motion": 15.53669979,
        "meta_eccentricity": 0.00093168,
        "meta_inclination": 49.9933,
        "meta_ra_of_asc_node": 225.8758,
        "meta_arg_of_pericenter": 149.7173,
        "meta_mean_anomaly": 210.4335,
        "meta_ephemeris_type": 0,
        "meta_classification_type": "U",
        "meta_norad_cat_id": 56232,
        "meta_element_set_no": 999,
        "meta_rev_at_epoch": 15107,
        "meta_bstar": 0.00066174654,
        "meta_mean_motion_dot": 0.00042973,
        "meta_mean_motion_ddot": 0,
        "tle_line1": "1 56232U 23055A   25347.04573404  .00042973  00000+0  66175-3 0  9993",
        "tle_line2": "2 56232  49.9933 225.8758 0009316 149.7173 210.4335 15.53669979151077"
      },
      "geometry": {
        "type": "Point",
        "coordinates": [
          -134.9410659355159,
          1.0056688879696685
        ]
      }
    },
    {
      "type": "Feature",
      "properties": {
        "norad_id": 57166,
        "name": "METEOR-M2 3",
        "group": "weather",
        "lat": -43.289544442529575,
        "lon": -147.33671273827764,
        "alt_km": 820.6281828389747,
        "timestamp": "2025-12-13T08:49:15.336955+00:00",
        "meta_object_name": "METEOR-M2 3",
        "meta_object_id": "2023-091A",
        "meta_epoch": "2025-12-13T01:01:39.654912",
        "meta_mean_motion": 14.24026147,
        "meta_eccentricity": 0.00038889,
        "meta_inclination": 98.6378,
        "meta_ra_of_asc_node": 40.5769,
        "meta_arg_of_pericenter": 8.1347,
        "meta_mean_anomaly": 351.9895,
        "meta_ephemeris_type": 0,
        "meta_classification_type": "U",
        "meta_norad_cat_id": 57166,
        "meta_element_set_no": 999,
        "meta_rev_at_epoch": 12802,
        "meta_bstar": 3.1617074e-05,
        "meta_mean_motion_dot": 2.9e-07,
        "meta_mean_motion_ddot": 0,
        "tle_line1": "1 57166U 23091A   25347.04282008  .00000029  00000+0  31617-4 0  9997",
        "tle_line2": "2 57166  98.6378  40.5769 0003888   8.1347 351.9895 14.24026147128023"
      },
      "geometry": {
        "type": "Point",
        "coordinates": [
          -147.33671273827764,
          -43.289544442529575
        ]
      }
    },
    {
      "type": "Feature",
      "properties": {
        "norad_id": 57399,
        "name": "TIANMU-1 07",
        "group": "weather",
        "lat": -72.84038334179216,
        "lon": 61.690119652379785,
        "alt_km": 492.32208897113014,
        "timestamp": "2025-12-13T08:49:15.336966+00:00",
        "meta_object_name": "TIANMU-1 07",
        "meta_object_id": "2023-101A",
        "meta_epoch": "2025-12-12T23:43:00.135264",
        "meta_mean_motion": 15.2807741,
        "meta_eccentricity": 0.00056001,
        "meta_inclination": 97.2882,
        "meta_ra_of_asc_node": 36.8324,
        "meta_arg_of_pericenter": 81.0223,
        "meta_mean_anomaly": 279.1651,
        "meta_ephemeris_type": 0,
        "meta_classification_type": "U",
        "meta_norad_cat_id": 57399,
        "meta_element_set_no": 999,
        "meta_rev_at_epoch": 13319,
        "meta_bstar": 0.00037593333,
        "meta_mean_motion_dot": 0.00010229,
        "meta_mean_motion_ddot": 0,
        "tle_line1": "1 57399U 23101A   25346.98819601  .00010229  00000+0  37593-3 0  9995",
        "tle_line2": "2 57399  97.2882  36.8324 0005600  81.0223 279.1651 15.28077410133197"
      },
      "geometry": {
        "type": "Point",
        "coordinates": [
          61.690119652379785,
          -72.84038334179216
        ]
      }
    }
  ]
}